[{"OBJECT_NAME":"STARLINK-3586","OBJECT_ID":"2022-017AD","EPOCH":"2026-03-09T23:32:02.658912","MEAN_MOTION":15.08837334,"ECCENTRICITY":0.00014579,"INCLINATION":53.2205,"RA_OF_ASC_NODE":348.0014,"ARG_OF_PERICENTER":127.8796,"MEAN_ANOMALY":232.2328,"EPHEMERIS_TYPE":0,"CLASSIFICATION_TYPE":"U","NORAD_CAT_ID":51795,"ELEMENT_SET_NO":999,"REV_AT_EPOCH":22396,"BSTAR":-0.00017054062,"MEAN_MOTION_DOT":-3.001e-5,"MEAN_MOTION_DDOT":0},{"OBJECT_NAME":"JILIN-01 KUANFU 02B 5","OBJECT_ID":"2024-169E","EPOCH":"2026-03-09T22:46:28.718400","MEAN_MOTION":15.09244096,"ECCENTRICITY":0.00111722,"INCLINATION":97.556,"RA_OF_ASC_NODE":160.0628,"ARG_OF_PERICENTER":294.0678,"MEAN_ANOMALY":65.9381,"EPHEMERIS_TYPE":0,"CLASSIFICATION_TYPE":"U","NORAD_CAT_ID":61193,"ELEMENT_SET_NO":999,"REV_AT_EPOCH":8086,"BSTAR":0.00034816655,"MEAN_MOTION_DOT":5.486e-5,"MEAN_MOTION_DDOT":0}]
